*******************************************************************************
 Revised: Mar 12, 2021           Callisto / (Jupiter)                       504

 SATELLITE PHYSICAL PROPERTIES:
  Mean radius (km)      = 2410.3 +- 1.5       Density (g cm^-3)= 1.834 +- 0.004
  GM (km^3/s^2)         = 7179.2834 +- 0.0097 Geometric Albedo = 0.17  +- 0.02

 SATELLITE ORBIT (at J2000.0 epoch, 2000-Jan-1.5):
  Semi-major axis, a (km)~ 1,883,000          Orbital period   ~ 16.691    d
  Eccentricity, e        ~ 0.00744            Rotational period= Synchronous
  Inclination, i  (deg)  ~ 0.200 
*******************************************************************************
 
 
*******************************************************************************
Ephemeris / WWW_USER Thu Apr  8 14:50:02 2021 Pasadena, USA      / Horizons
*******************************************************************************
Target body name: Callisto (504)                  {source: jup365_merged}
Center body name: Jupiter (599)                   {source: jup365_merged}
Center-site name: BODY CENTER
*******************************************************************************
Start time      : A.D. 1986-Apr-24 12:00:00.0000 TDB
Stop  time      : A.D. 2013-Sep-09 12:00:00.0000 TDB
Step-size       : 144000 minutes
*******************************************************************************
Center geodetic : 0.00000000,0.00000000,0.0000000 {W-lon(deg),Lat(deg),Alt(km)}
Center cylindric: 0.00000000,0.00000000,0.0000000 {W-lon(deg),Dxy(km),Dz(km)}
Center radii    : 71492.0 x 71492.0 x 66854.0 km  {Equator, meridian, pole}    
Output units    : AU-D
Output type     : LT CORRECTED cartesian states
Output format   : 2 (position and velocity)
Reference frame : ICRF
*******************************************************************************
JDTDB
   X     Y     Z
   VX    VY    VZ
*******************************************************************************
$$SOE
2453945.000000000 = A.D. 2006-Jul-28 12:00:00.0000 TDB 
 X = 1.230581622954938E-02 Y = 1.888940769999962E-03 Z = 1.073825556707769E-03
 VX=-8.201120789825105E-04 VY= 4.255017834556616E-03 VZ= 1.997957029474032E-03
2454045.000000000 = A.D. 2006-Nov-05 12:00:00.0000 TDB 
 X = 1.240000773666980E-02 Y = 1.316377593679904E-03 Z = 8.049525178575319E-04
 VX=-5.808305986003758E-04 VY= 4.286563126307976E-03 VZ= 2.016255372236681E-03
2454145.000000000 = A.D. 2007-Feb-13 12:00:00.0000 TDB 
 X = 1.246175194402202E-02 Y = 7.400203716926293E-04 Z = 5.338733498318962E-04
 VX=-3.384317922186934E-04 VY= 4.306280703894830E-03 VZ= 2.029044758036196E-03
2454245.000000000 = A.D. 2007-May-24 12:00:00.0000 TDB 
 X = 1.249123605302252E-02 Y = 1.621818659588242E-04 Z = 2.616599590692652E-04
 VX=-9.699978532788010E-05 VY= 4.315410515804372E-03 VZ= 2.036856530276896E-03
2454345.000000000 = A.D. 2007-Sep-01 12:00:00.0000 TDB 
 X = 1.248796778193509E-02 Y =-4.165821365398975E-04 Z =-1.146901927095614E-05
 VX= 1.464337380614206E-04 VY= 4.312836044283807E-03 VZ= 2.039209933082300E-03
2454445.000000000 = A.D. 2007-Dec-10 12:00:00.0000 TDB 
 X = 1.245204679634834E-02 Y =-9.938363821002220E-04 Z =-2.843914573916573E-04
 VX= 3.877228446257132E-04 VY= 4.298994764398590E-03 VZ= 2.036241543873480E-03
2454545.000000000 = A.D. 2008-Mar-19 12:00:00.0000 TDB 
 X = 1.238366447166099E-02 Y =-1.569123255923351E-03 Z =-5.569235336337238E-04
 VX= 6.300483321904805E-04 VY= 4.274105751641047E-03 VZ= 2.028101554972916E-03
2454645.000000000 = A.D. 2008-Jun-27 12:00:00.0000 TDB 
 X = 1.228285843286624E-02 Y =-2.140119523895911E-03 Z =-8.279884563277945E-04
 VX= 8.690921943009932E-04 VY= 4.237796338118930E-03 VZ= 2.014532443499514E-03
2454745.000000000 = A.D. 2008-Oct-05 12:00:00.0000 TDB 
 X = 1.215023598388853E-02 Y =-2.706220874969299E-03 Z =-1.097307885453053E-03
 VX= 1.107596969809608E-03 VY= 4.191278359608298E-03 VZ= 1.996145444135082E-03
2454845.000000000 = A.D. 2009-Jan-13 12:00:00.0000 TDB 
 X = 1.198558346367415E-02 Y =-3.265025194427357E-03 Z =-1.363747221352825E-03
 VX= 1.341501787645103E-03 VY= 4.132961491040208E-03 VZ= 1.972104088780773E-03
2454945.000000000 = A.D. 2009-Apr-23 12:00:00.0000 TDB 
 X = 1.178987204249401E-02 Y =-3.815779356449809E-03 Z =-1.626923371591788E-03
 VX= 1.573115013230458E-03 VY= 4.064878822792571E-03 VZ= 1.943397820426460E-03
2455045.000000000 = A.D. 2009-Aug-01 12:00:00.0000 TDB 
 X = 1.156281049296426E-02 Y =-4.356490086369374E-03 Z =-1.885868903791779E-03
 VX= 1.799455932462087E-03 VY= 3.984723445257536E-03 VZ= 1.908867188398780E-03
2455145.000000000 = A.D. 2009-Nov-09 12:00:00.0000 TDB 
 X = 1.130590301636143E-02 Y =-4.886444103098010E-03 Z =-2.140186131473456E-03
 VX= 2.022178768461883E-03 VY= 3.895499891291781E-03 VZ= 1.869959987932812E-03
2455245.000000000 = A.D. 2010-Feb-17 12:00:00.0000 TDB 
 X = 1.101899788682379E-02 Y =-5.403820111088837E-03 Z =-2.388969476997668E-03
 VX= 2.239035061594359E-03 VY= 3.794609696067505E-03 VZ= 1.825402651625419E-03
2455345.000000000 = A.D. 2010-May-28 12:00:00.0000 TDB 
 X = 1.070398935874726E-02 Y =-5.907340144072532E-03 Z =-2.631539759224308E-03
 VX= 2.450339976195429E-03 VY= 3.685618354169700E-03 VZ= 1.776905378789680E-03
2455445.000000000 = A.D. 2010-Sep-05 12:00:00.0000 TDB 
 X = 1.036070683244650E-02 Y =-6.395352058061063E-03 Z =-2.867077973494617E-03
 VX= 2.654791466971479E-03 VY= 3.565445322273025E-03 VZ= 1.722992563321861E-03
2455545.000000000 = A.D. 2010-Dec-14 12:00:00.0000 TDB 
 X = 9.990994933173359E-03 Y =-6.866559085663782E-03 Z =-3.094917508635702E-03
 VX= 2.851785328936493E-03 VY= 3.437650105025920E-03 VZ= 1.665367083134719E-03
2455645.000000000 = A.D. 2011-Mar-24 12:00:00.0000 TDB 
 X = 9.594736873339916E-03 Y =-7.319956287858190E-03 Z =-3.314581217332642E-03
 VX= 3.041630228032919E-03 VY= 3.299154907574749E-03 VZ= 1.602584320684445E-03
2455745.000000000 = A.D. 2011-Jul-02 12:00:00.0000 TDB 
 X = 9.174057187401968E-03 Y =-7.754121297052365E-03 Z =-3.525380735950478E-03
 VX= 3.222775413458122E-03 VY= 3.153616642868986E-03 VZ= 1.536382621670923E-03
2455845.000000000 = A.D. 2011-Oct-10 12:00:00.0000 TDB 
 X = 8.729312813849924E-03 Y =-8.168270906904807E-03 Z =-3.726979478222242E-03
 VX= 3.396480974306729E-03 VY= 2.998660737337364E-03 VZ= 1.465664145451911E-03
2455945.000000000 = A.D. 2012-Jan-18 12:00:00.0000 TDB 
 X = 8.262606923264621E-03 Y =-8.560681813402580E-03 Z =-3.918577585103428E-03
 VX= 3.560007565524811E-03 VY= 2.837557044519200E-03 VZ= 1.391957915806119E-03
2456045.000000000 = A.D. 2012-Apr-27 12:00:00.0000 TDB 
 X = 7.774326915010958E-03 Y =-8.931000205384579E-03 Z =-4.100060153180869E-03
 VX= 3.715439722525014E-03 VY= 2.668313250316927E-03 VZ= 1.314347259685146E-03
2456145.000000000 = A.D. 2012-Aug-05 12:00:00.0000 TDB 
 X = 7.266194796433177E-03 Y =-9.277554878606318E-03 Z =-4.270660248776765E-03
 VX= 3.859337408090528E-03 VY= 2.493247232314141E-03 VZ= 1.233877156735917E-03
2456245.000000000 = A.D. 2012-Nov-13 12:00:00.0000 TDB 
 X = 6.739022475132253E-03 Y =-9.600370214791593E-03 Z =-4.430426571428947E-03
 VX= 3.994779751409056E-03 VY= 2.311127909238743E-03 VZ= 1.149994188880977E-03
2456345.000000000 = A.D. 2013-Feb-21 12:00:00.0000 TDB 
 X = 6.194590427187150E-03 Y =-9.897824118862140E-03 Z =-4.578591577445804E-03
 VX= 4.118036328784764E-03 VY= 2.123561706627347E-03 VZ= 1.063386576222358E-03
2456445.000000000 = A.D. 2013-Jun-01 12:00:00.0000 TDB 
 X = 5.634207983482736E-03 Y =-1.017018208064749E-02 Z =-4.715278919949286E-03
 VX= 4.232589158144941E-03 VY= 1.930631813953853E-03 VZ= 9.741315011721708E-04
2456545.000000000 = A.D. 2013-Sep-09 12:00:00.0000 TDB 
 X = 5.059344071204106E-03 Y =-1.041586421559823E-02 Z =-4.839709625960010E-03
 VX= 4.334377032265669E-03 VY= 1.732992567040228E-03 VZ= 8.824576569888087E-04
